COMMENT,ORIGINATOR,NORAD_CAT_ID,OBJECT_NAME,OBJECT_TYPE,CLASSIFICATION_TYPE,INTLDES,EPOCH,EPOCH_MICROSECONDS,MEAN_MOTION,ECCENTRICITY,INCLINATION,RA_OF_ASC_NODE,ARG_OF_PERICENTER,MEAN_ANOMALY,EPHEMERIS_TYPE,ELEMENT_SET_NO,REV_AT_EPOCH,BSTAR,MEAN_MOTION_DOT,MEAN_MOTION_DDOT,FILE,TLE_LINE0,TLE_LINE1,TLE_LINE2,OBJECT_ID,OBJECT_NUMBER,SEMIMAJOR_AXIS,PERIOD,APOGEE,PERIGEE,DECAYED
"GENERATED VIA SPACETRACK.ORG API","18 SPCS","55091","SPACEBEE-164","PAYLOAD","U","23001CL","2024-04-07 21:58:55","187328","15.37838263","0.0009474","97.429","163.7503","48.8632","311.3429","0","999","7023","0.001018","0.00037967","0","4268432","0 SPACEBEE-164","1 55091U 23001CL  24098.91591652  .00037967  00000-0  10180-2 0  9991","2 55091  97.4290 163.7503 0009474  48.8632 311.3429 15.37838263 70234","2023-001CL","55091","6830.640","93.638","458.976","446.034","0"
"GENERATED VIA SPACETRACK.ORG API","18 SPCS","55091","SPACEBEE-164","PAYLOAD","U","23001CL","2024-04-08 02:40:00","789600","15.37856661","0.0009406","97.429","163.9476","47.8859","312.3183","0","999","7026","0.0010564","0.00039432","0","4269708","0 SPACEBEE-164","1 55091U 23001CL  24099.11112025  .00039432  00000-0  10564-2 0  9992","2 55091  97.4290 163.9476 0009406  47.8859 312.3183 15.37856661 70263","2023-001CL","55091","6830.586","93.637","458.875","446.026","0"
"GENERATED VIA SPACETRACK.ORG API","18 SPCS","55091","SPACEBEE-164","PAYLOAD","U","23001CL","2024-04-09 03:39:07","854336","15.37940679","0.0009344","97.4291","165.0027","44.3792","315.82","0","999","7042","0.0010514","0.00039351","0","4270854","0 SPACEBEE-164","1 55091U 23001CL  24100.15217424  .00039351  00000-0  10514-2 0  9993","2 55091  97.4291 165.0027 0009344  44.3792 315.8200 15.37940679 70427","2023-001CL","55091","6830.337","93.632","458.584","445.820","0"
"GENERATED VIA SPACETRACK.ORG API","18 SPCS","55091","SPACEBEE-164","PAYLOAD","U","23001CL","2024-04-09 03:39:07","854336","15.37940679","0.0009344","97.4291","165.0027","44.3792","315.82","0","999","7042","0.0010514","0.00039351","0","4271457","0 SPACEBEE-164","1 55091U 23001CL  24100.15217424  .00039351  00000-0  10514-2 0  9993","2 55091  97.4291 165.0027 0009344  44.3792 315.8200 15.37940679 70427","2023-001CL","55091","6830.337","93.632","458.584","445.820","0"
"GENERATED VIA SPACETRACK.ORG API","18 SPCS","55091","SPACEBEE-164","PAYLOAD","U","23001CL","2024-04-10 03:04:28","778304","15.38024353","0.0009229","97.4285","165.9905","40.8293","319.3642","0","999","7057","0.0011991","0.00045044","0","4273273","0 SPACEBEE-164","1 55091U 23001CL  24101.12811086  .00045044  00000-0  11991-2 0  9991","2 55091  97.4285 165.9905 0009229  40.8293 319.3642 15.38024353 70571","2023-001CL","55091","6830.089","93.627","458.258","445.651","0"
"GENERATED VIA SPACETRACK.ORG API","18 SPCS","55091","SPACEBEE-164","PAYLOAD","U","23001CL","2024-04-10 17:07:39","213120","15.38068316","0.0009157","97.4284","166.5832","38.8205","321.3696","0","999","7066","0.0010328","0.00038809","0","4273760","0 SPACEBEE-164","1 55091U 23001CL  24101.71364830  .00038809  00000-0  10328-2 0  9990","2 55091  97.4284 166.5832 0009157  38.8205 321.3696 15.38068316 70665","2023-001CL","55091","6829.959","93.624","458.078","445.570","0"
"GENERATED VIA SPACETRACK.ORG API","18 SPCS","55091","SPACEBEE-164","PAYLOAD","U","23001CL","2024-04-10 21:48:42","310656","15.38086205","0.000913","97.4277","166.7798","38.2223","321.9668","0","999","7069","0.0011136","0.00041892","0","4273834","0 SPACEBEE-164","1 55091U 23001CL  24101.90882304  .00041892  00000-0  11136-2 0  9996","2 55091  97.4277 166.7798 0009130  38.2223 321.9668 15.38086205 70690","2023-001CL","55091","6829.906","93.623","458.007","445.535","0"
"GENERATED VIA SPACETRACK.ORG API","18 SPCS","55091","SPACEBEE-164","PAYLOAD","U","23001CL","2024-04-11 04:03:26","121312","15.38110285","0.0009071","97.4276","167.0432","37.0063","323.1806","0","999","7073","0.0011068","0.00041666","0","4275078","0 SPACEBEE-164","1 55091U 23001CL  24102.16905233  .00041666  00000-0  11068-2 0  9995","2 55091  97.4276 167.0432 0009071  37.0063 323.1806 15.38110285 70730","2023-001CL","55091","6829.835","93.621","457.895","445.504","0"
"GENERATED VIA SPACETRACK.ORG API","18 SPCS","55091","SPACEBEE-164","PAYLOAD","U","23001CL","2024-04-11 16:32:52","796544","15.38155336","0.0008992","97.4275","167.5702","35.0485","325.135","0","999","7081","0.0010672","0.00040223","0","4275598","0 SPACEBEE-164","1 55091U 23001CL  24102.68949996  .00040223  00000-0  10672-2 0  9994","2 55091  97.4275 167.5702 0008992  35.0485 325.1350 15.38155336 70812","2023-001CL","55091","6829.701","93.619","457.708","445.425","0"
"GENERATED VIA SPACETRACK.ORG API","18 SPCS","55091","SPACEBEE-164","PAYLOAD","U","23001CL","2024-04-11 16:32:52","796544","15.38155336","0.0008992","97.4275","167.5702","35.0485","325.135","0","999","7081","0.0010672","0.00040223","0","4275619","0 SPACEBEE-164","1 55091U 23001CL  24102.68949996  .00040223  00000-0  10672-2 0  9994","2 55091  97.4275 167.5702 0008992  35.0485 325.1350 15.38155336 70812","2023-001CL","55091","6829.701","93.619","457.708","445.425","0"
"GENERATED VIA SPACETRACK.ORG API","18 SPCS","55091","SPACEBEE-164","PAYLOAD","U","23001CL","2024-04-12 03:28:37","548192","15.3819519","0.0008941","97.4274","168.0311","33.1742","327.0062","0","999","7088","0.0011003","0.00041533","0","4276832","0 SPACEBEE-164","1 55091U 23001CL  24103.14487903  .00041533  00000-0  11003-2 0  9995","2 55091  97.4274 168.0311 0008941  33.1742 327.0062 15.38195190 70882","2023-001CL","55091","6829.583","93.616","457.555","445.342","0"
"GENERATED VIA SPACETRACK.ORG API","18 SPCS","55091","SPACEBEE-164","PAYLOAD","U","23001CL","2024-04-13 02:53:44","172096","15.38283084","0.0008873","97.4269","169.0187","29.5374","330.637","0","999","7103","0.0010947","0.00041438","0","4277910","0 SPACEBEE-164","1 55091U 23001CL  24104.12065014  .00041438  00000-0  10947-2 0  9999","2 55091  97.4269 169.0187 0008873  29.5374 330.6370 15.38283084 71032","2023-001CL","55091","6829.323","93.611","457.248","445.129","0"
"GENERATED VIA SPACETRACK.ORG API","18 SPCS","55091","SPACEBEE-164","PAYLOAD","U","23001CL","2024-04-13 02:53:44","172096","15.38283084","0.0008873","97.4269","169.0187","29.5374","330.637","0","999","7103","0.0010947","0.00041438","0","4278498","0 SPACEBEE-164","1 55091U 23001CL  24104.12065014  .00041438  00000-0  10947-2 0  9999","2 55091  97.4269 169.0187 0008873  29.5374 330.6370 15.38283084 71032","2023-001CL","55091","6829.323","93.611","457.248","445.129","0"
"GENERATED VIA SPACETRACK.ORG API","18 SPCS","55091","SPACEBEE-164","PAYLOAD","U","23001CL","2024-04-13 16:56:45","715488","15.38345264","0.0008795","97.427","169.6115","27.3438","332.8268","0","999","7112","0.0013003","0.00049385","0","4278987","0 SPACEBEE-164","1 55091U 23001CL  24104.70608467  .00049385  00000-0  13003-2 0  9993","2 55091  97.4270 169.6115 0008795  27.3438 332.8268 15.38345264 71120","2023-001CL","55091","6829.139","93.607","457.010","444.998","0"
"GENERATED VIA SPACETRACK.ORG API","18 SPCS","55091","SPACEBEE-164","PAYLOAD","U","23001CL","2024-04-14 03:52:25","491360","15.38392867","0.0008816","97.4267","170.0726","24.8105","335.3562","0","999","7119","0.0013191","0.00050183","0","4279515","0 SPACEBEE-164","1 55091U 23001CL  24105.16140615  .00050183  00000-0  13191-2 0  9996","2 55091  97.4267 170.0726 0008816  24.8105 335.3562 15.38392867 71190","2023-001CL","55091","6828.998","93.604","456.884","444.843","0"
"GENERATED VIA SPACETRACK.ORG API","18 SPCS","55091","SPACEBEE-164","PAYLOAD","U","23001CL","2024-04-14 17:55:23","376576","15.38457514","0.0008706","97.4266","170.6656","22.9905","337.1728","0","999","7128","0.0013719","0.00052318","0","4280633","0 SPACEBEE-164","1 55091U 23001CL  24105.74679834  .00052318  00000-0  13719-2 0  9998","2 55091  97.4266 170.6656 0008706  22.9905 337.1728 15.38457514 71287","2023-001CL","55091","6828.807","93.600","456.617","444.727","0"
"GENERATED VIA SPACETRACK.ORG API","18 SPCS","55091","SPACEBEE-164","PAYLOAD","U","23001CL","2024-04-15 03:17:20","631840","15.38511583","0.0008628","97.4266","171.0606","20.5356","339.6234","0","999","7134","0.0015988","0.0006116","0","4281200","0 SPACEBEE-164","1 55091U 23001CL  24106.13704435  .00061160  00000-0  15988-2 0  9993","2 55091  97.4266 171.0606 0008628  20.5356 339.6234 15.38511583 71347","2023-001CL","55091","6828.647","93.597","456.404","444.620","0"
"GENERATED VIA SPACETRACK.ORG API","18 SPCS","55091","SPACEBEE-164","PAYLOAD","U","23001CL","2024-04-15 03:17:20","631840","15.38511583","0.0008628","97.4266","171.0606","20.5356","339.6234","0","999","7134","0.0015988","0.0006116","0","4281855","0 SPACEBEE-164","1 55091U 23001CL  24106.13704435  .00061160  00000-0  15988-2 0  9993","2 55091  97.4266 171.0606 0008628  20.5356 339.6234 15.38511583 71347","2023-001CL","55091","6828.647","93.597","456.404","444.620","0"
"GENERATED VIA SPACETRACK.ORG API","18 SPCS","55091","SPACEBEE-164","PAYLOAD","U","23001CL","2024-04-16 04:15:47","935296","15.38659967","0.0008514","97.4268","172.1146","16.9196","343.2331","0","999","7150","0.0020336","0.00078363","0","4283117","0 SPACEBEE-164","1 55091U 23001CL  24107.17763814  .00078363  00000-0  20336-2 0  9990","2 55091  97.4268 172.1146 0008514  16.9196 343.2331 15.38659967 71501","2023-001CL","55091","6828.208","93.588","455.886","444.259","0"
"GENERATED VIA SPACETRACK.ORG API","18 SPCS","55091","SPACEBEE-164","PAYLOAD","U","23001CL","2024-04-16 04:15:47","935296","15.38659967","0.0008514","97.4268","172.1146","16.9196","343.2331","0","999","7150","0.0020336","0.00078363","0","4283936","0 SPACEBEE-164","1 55091U 23001CL  24107.17763814  .00078363  00000-0  20336-2 0  9990","2 55091  97.4268 172.1146 0008514  16.9196 343.2331 15.38659967 71501","2023-001CL","55091","6828.208","93.588","455.886","444.259","0"
